STARLINK-1506           
1 45747U 20038T   26068.66028804  .00025380  00000+0  97997-3 0  9997
2 45747  53.0733 202.5028 0002514 227.7836 132.2949 15.26134655316688
STARLINK-32327          
1 61641U 24191W   26068.26598641 -.00005620  00000+0 -19481-3 0  9998
2 61641  42.9998 156.7153 0001265 212.4591 147.6183 15.27589969 77473
